[{"OBJECT_NAME":"NEXSAT-1","OBJECT_ID":"2024-024E","EPOCH":"2026-03-09T22:47:24.778176","MEAN_MOTION":15.32166372,"ECCENTRICITY":0.00099795,"INCLINATION":97.3124,"RA_OF_ASC_NODE":144.1918,"ARG_OF_PERICENTER":108.5709,"MEAN_ANOMALY":251.6617,"EPHEMERIS_TYPE":0,"CLASSIFICATION_TYPE":"U","NORAD_CAT_ID":58921,"ELEMENT_SET_NO":999,"REV_AT_EPOCH":11669,"BSTAR":0.00031433612,"MEAN_MOTION_DOT":9.702e-5,"MEAN_MOTION_DDOT":0},{"OBJECT_NAME":"STARLINK-34824","OBJECT_ID":"2025-161AD","EPOCH":"2026-03-09T21:26:00.314880","MEAN_MOTION":15.30184122,"ECCENTRICITY":9.551e-5,"INCLINATION":53.1586,"RA_OF_ASC_NODE":293.0639,"ARG_OF_PERICENTER":62.7634,"MEAN_ANOMALY":297.3464,"EPHEMERIS_TYPE":0,"CLASSIFICATION_TYPE":"U","NORAD_CAT_ID":65042,"ELEMENT_SET_NO":999,"REV_AT_EPOCH":3426,"BSTAR":0.00026940354,"MEAN_MOTION_DOT":7.624e-5,"MEAN_MOTION_DDOT":0}]
